[{"OBJECT_NAME":"GEESAT-5 05","OBJECT_ID":"2025-201E","EPOCH":"2026-03-09T17:14:17.887776","MEAN_MOTION":14.83770163,"ECCENTRICITY":0.00115794,"INCLINATION":49.98,"RA_OF_ASC_NODE":140.5064,"ARG_OF_PERICENTER":255.8827,"MEAN_ANOMALY":104.0824,"EPHEMERIS_TYPE":0,"CLASSIFICATION_TYPE":"U","NORAD_CAT_ID":65554,"ELEMENT_SET_NO":999,"REV_AT_EPOCH":2702,"BSTAR":0.00036020653,"MEAN_MOTION_DOT":2.79e-5,"MEAN_MOTION_DDOT":0},{"OBJECT_NAME":"AETHER-7","OBJECT_ID":"2026-004R","EPOCH":"2026-03-09T23:38:02.128704","MEAN_MOTION":14.87800631,"ECCENTRICITY":0.00064671,"INCLINATION":97.8004,"RA_OF_ASC_NODE":69.1783,"ARG_OF_PERICENTER":100.8073,"MEAN_ANOMALY":259.3872,"EPHEMERIS_TYPE":0,"CLASSIFICATION_TYPE":"U","NORAD_CAT_ID":67378,"ELEMENT_SET_NO":999,"REV_AT_EPOCH":853,"BSTAR":0.00014118704,"MEAN_MOTION_DOT":1.235e-5,"MEAN_MOTION_DDOT":0}]
